IRIDIUM 921             
1 24873U 97034E   24206.73085810  .00038178  00000+0  88904-3 0  9991
2 24873  86.3778 269.4884 0006047 111.0517 249.1385 15.42101231480968
IRIDIUM 26              
1 24903U 97043A   24206.73701500  .00000774  00000+0  25735-3 0  9990
2 24903  86.3932 247.9970 0002476  93.0347 267.1133 14.36449953409727
IRIDIUM 22              
1 24907U 97043E   24206.68232354  .00000755  00000+0  25676-3 0  9997
2 24907  86.3935 251.2873 0002226  92.2427 267.9025 14.35336520409785
DUMMY MASS 1            
1 24925U 97048A   24206.69423321  .00000951  00000+0  10492-3 0  9997
2 24925  86.3343 286.6587 0005320 209.7270 150.3652 14.86302089456479
DUMMY MASS 2            
1 24926U 97048B   24207.20832136  .00000867  00000+0  95949-4 0  9991
2 24926  86.3343 287.9715 0005788 223.7119 136.3647 14.86060023456571
IRIDIUM 29              
1 24944U 97051A   24206.81284326  .00000789  00000+0  26598-3 0  9999
2 24944  86.3945 281.1297 0001997  96.7310 263.4114 14.35789673406286
IRIDIUM 33              
1 24946U 97051C   24206.52629793  .00000619  00000+0  21286-3 0  9991
2 24946  86.3860 280.4988 0009961  73.4427 286.7862 14.34428555405772
IRIDIUM 28              
1 24948U 97051E   24206.72213247  .00000884  00000+0  29323-3 0  9992
2 24948  86.3949 278.8686 0002658  91.5957 268.5545 14.36744904406816
